CCSDS_OMM_VERS = 2.0
CREATION_DATE  = 
ORIGINATOR     = 

OBJECT_NAME    = COSMOS 2242
OBJECT_ID      = 1993-024A
CENTER_NAME    = EARTH
REF_FRAME      = TEME
TIME_SYSTEM    = UTC
MEAN_ELEMENT_THEORY = SGP/SGP4

EPOCH          = 2026-03-14T05:59:05.895456
MEAN_MOTION    = 14.96568847
ECCENTRICITY   = .0014969
INCLINATION    = 82.5151
RA_OF_ASC_NODE = 262.3538
ARG_OF_PERICENTER = 292.2813
MEAN_ANOMALY   = 67.6821

EPHEMERIS_TYPE = 0
CLASSIFICATION_TYPE = U
NORAD_CAT_ID   = 22626
ELEMENT_SET_NO = 999
REV_AT_EPOCH   = 78107
BSTAR          = .19683024E-3
MEAN_MOTION_DOT = .2269E-4
MEAN_MOTION_DDOT = 0

CCSDS_OMM_VERS = 2.0
CREATION_DATE  = 
ORIGINATOR     = 

OBJECT_NAME    = SL-16 R/B
OBJECT_ID      = 1993-059B
CENTER_NAME    = EARTH
REF_FRAME      = TEME
TIME_SYSTEM    = UTC
MEAN_ELEMENT_THEORY = SGP/SGP4

EPOCH          = 2026-03-14T04:56:25.316448
MEAN_MOTION    = 14.17231456
ECCENTRICITY   = .00182679
INCLINATION    = 70.9930
RA_OF_ASC_NODE = 1.6032
ARG_OF_PERICENTER = 209.9164
MEAN_ANOMALY   = 150.0917

EPHEMERIS_TYPE = 0
CLASSIFICATION_TYPE = U
NORAD_CAT_ID   = 22803
ELEMENT_SET_NO = 999
REV_AT_EPOCH   = 68017
BSTAR          = .4223558E-4
MEAN_MOTION_DOT = .37E-6
MEAN_MOTION_DDOT = 0

CCSDS_OMM_VERS = 2.0
CREATION_DATE  = 
ORIGINATOR     = 

OBJECT_NAME    = ARIANE 40 R/B
OBJECT_ID      = 1993-061H
CENTER_NAME    = EARTH
REF_FRAME      = TEME
TIME_SYSTEM    = UTC
MEAN_ELEMENT_THEORY = SGP/SGP4

EPOCH          = 2026-03-14T04:01:31.183392
MEAN_MOTION    = 14.32863563
ECCENTRICITY   = .00095806
INCLINATION    = 98.4907
RA_OF_ASC_NODE = 141.9668
ARG_OF_PERICENTER = 270.3123
MEAN_ANOMALY   = 89.6963

EPHEMERIS_TYPE = 0
CLASSIFICATION_TYPE = U
NORAD_CAT_ID   = 22830
ELEMENT_SET_NO = 999
REV_AT_EPOCH   = 69474
BSTAR          = .97906975E-4
MEAN_MOTION_DOT = .224E-5
MEAN_MOTION_DDOT = 0

CCSDS_OMM_VERS = 2.0
CREATION_DATE  = 
ORIGINATOR     = 

OBJECT_NAME    = COSMOS 2278
OBJECT_ID      = 1994-023A
CENTER_NAME    = EARTH
REF_FRAME      = TEME
TIME_SYSTEM    = UTC
MEAN_ELEMENT_THEORY = SGP/SGP4

EPOCH          = 2026-03-14T06:22:16.323744
MEAN_MOTION    = 14.14379631
ECCENTRICITY   = .00083791
INCLINATION    = 71.0550
RA_OF_ASC_NODE = 165.5254
ARG_OF_PERICENTER = 4.9169
MEAN_ANOMALY   = 355.2035

EPHEMERIS_TYPE = 0
CLASSIFICATION_TYPE = U
NORAD_CAT_ID   = 23087
ELEMENT_SET_NO = 999
REV_AT_EPOCH   = 64545
BSTAR          = -.5949321E-5
MEAN_MOTION_DOT = -.59E-6
MEAN_MOTION_DDOT = 0

CCSDS_OMM_VERS = 2.0
CREATION_DATE  = 
ORIGINATOR     = 

OBJECT_NAME    = SL-16 R/B
OBJECT_ID      = 1994-023B
CENTER_NAME    = EARTH
REF_FRAME      = TEME
TIME_SYSTEM    = UTC
MEAN_ELEMENT_THEORY = SGP/SGP4

EPOCH          = 2026-03-14T07:26:13.715808
MEAN_MOTION    = 14.15010390
ECCENTRICITY   = .00056559
INCLINATION    = 70.9984
RA_OF_ASC_NODE = 61.1825
ARG_OF_PERICENTER = 281.0081
MEAN_ANOMALY   = 79.0405

EPHEMERIS_TYPE = 0
CLASSIFICATION_TYPE = U
NORAD_CAT_ID   = 23088
ELEMENT_SET_NO = 999
REV_AT_EPOCH   = 64674
BSTAR          = -.65097438E-4
MEAN_MOTION_DOT = -.174E-5
MEAN_MOTION_DDOT = 0

CCSDS_OMM_VERS = 2.0
CREATION_DATE  = 
ORIGINATOR     = 

OBJECT_NAME    = SL-16 R/B
OBJECT_ID      = 1994-074B
CENTER_NAME    = EARTH
REF_FRAME      = TEME
TIME_SYSTEM    = UTC
MEAN_ELEMENT_THEORY = SGP/SGP4

EPOCH          = 2026-03-14T01:16:23.699712
MEAN_MOTION    = 14.79413545
ECCENTRICITY   = .00060936
INCLINATION    = 97.7103
RA_OF_ASC_NODE = 103.6941
ARG_OF_PERICENTER = 194.8036
MEAN_ANOMALY   = 218.7919

EPHEMERIS_TYPE = 0
CLASSIFICATION_TYPE = U
NORAD_CAT_ID   = 23343
ELEMENT_SET_NO = 999
REV_AT_EPOCH   = 68789
BSTAR          = .78342069E-4
MEAN_MOTION_DOT = .535E-5
MEAN_MOTION_DDOT = 0

CCSDS_OMM_VERS = 2.0
CREATION_DATE  = 
ORIGINATOR     = 

OBJECT_NAME    = SL-16 R/B
OBJECT_ID      = 1994-077B
CENTER_NAME    = EARTH
REF_FRAME      = TEME
TIME_SYSTEM    = UTC
MEAN_ELEMENT_THEORY = SGP/SGP4

EPOCH          = 2026-03-14T03:33:40.508928
MEAN_MOTION    = 14.15562316
ECCENTRICITY   = .00028382
INCLINATION    = 70.9852
RA_OF_ASC_NODE = 343.1100
ARG_OF_PERICENTER = 206.4142
MEAN_ANOMALY   = 153.6837

EPHEMERIS_TYPE = 0
CLASSIFICATION_TYPE = U
NORAD_CAT_ID   = 23405
ELEMENT_SET_NO = 999
REV_AT_EPOCH   = 61686
BSTAR          = .12441561E-3
MEAN_MOTION_DOT = .196E-5
MEAN_MOTION_DDOT = 0

CCSDS_OMM_VERS = 2.0
CREATION_DATE  = 
ORIGINATOR     = 

OBJECT_NAME    = ARIANE 40+ R/B
OBJECT_ID      = 1995-021B
CENTER_NAME    = EARTH
REF_FRAME      = TEME
TIME_SYSTEM    = UTC
MEAN_ELEMENT_THEORY = SGP/SGP4

EPOCH          = 2026-03-14T04:39:54.921888
MEAN_MOTION    = 14.39776067
ECCENTRICITY   = .0007809
INCLINATION    = 98.4489
RA_OF_ASC_NODE = 144.6159
ARG_OF_PERICENTER = 124.5754
MEAN_ANOMALY   = 293.2070

EPHEMERIS_TYPE = 0
CLASSIFICATION_TYPE = U
NORAD_CAT_ID   = 23561
ELEMENT_SET_NO = 999
REV_AT_EPOCH   = 61989
BSTAR          = .1167862E-3
MEAN_MOTION_DOT = .323E-5
MEAN_MOTION_DDOT = 0

CCSDS_OMM_VERS = 2.0
CREATION_DATE  = 
ORIGINATOR     = 

OBJECT_NAME    = SL-16 R/B
OBJECT_ID      = 1995-058B
CENTER_NAME    = EARTH
REF_FRAME      = TEME
TIME_SYSTEM    = UTC
MEAN_ELEMENT_THEORY = SGP/SGP4

EPOCH          = 2026-03-14T07:07:34.635360
MEAN_MOTION    = 14.15498537
ECCENTRICITY   = .00105936
INCLINATION    = 71.0223
RA_OF_ASC_NODE = 170.5828
ARG_OF_PERICENTER = 117.4903
MEAN_ANOMALY   = 242.7298

EPHEMERIS_TYPE = 0
CLASSIFICATION_TYPE = U
NORAD_CAT_ID   = 23705
ELEMENT_SET_NO = 999
REV_AT_EPOCH   = 56850
BSTAR          = .16517714E-3
MEAN_MOTION_DOT = .276E-5
MEAN_MOTION_DDOT = 0

CCSDS_OMM_VERS = 2.0
CREATION_DATE  = 
ORIGINATOR     = 

OBJECT_NAME    = SL-16 R/B
OBJECT_ID      = 1996-051B
CENTER_NAME    = EARTH
REF_FRAME      = TEME
TIME_SYSTEM    = UTC
MEAN_ELEMENT_THEORY = SGP/SGP4

EPOCH          = 2026-03-14T06:34:01.720992
MEAN_MOTION    = 14.12417040
ECCENTRICITY   = .00146949
INCLINATION    = 70.7603
RA_OF_ASC_NODE = 165.5371
ARG_OF_PERICENTER = 140.9692
MEAN_ANOMALY   = 219.2491

EPHEMERIS_TYPE = 0
CLASSIFICATION_TYPE = U
NORAD_CAT_ID   = 24298
ELEMENT_SET_NO = 999
REV_AT_EPOCH   = 52229
BSTAR          = .72507481E-4
MEAN_MOTION_DOT = .85E-6
MEAN_MOTION_DDOT = 0

CCSDS_OMM_VERS = 2.0
CREATION_DATE  = 
ORIGINATOR     = 

OBJECT_NAME    = ORBVIEW 2 (SEASTAR)
OBJECT_ID      = 1997-037A
CENTER_NAME    = EARTH
REF_FRAME      = TEME
TIME_SYSTEM    = UTC
MEAN_ELEMENT_THEORY = SGP/SGP4

EPOCH          = 2026-03-14T03:46:58.804320
MEAN_MOTION    = 14.35498540
ECCENTRICITY   = .00029754
INCLINATION    = 98.8575
RA_OF_ASC_NODE = 237.5880
ARG_OF_PERICENTER = 62.8471
MEAN_ANOMALY   = 297.3016

EPHEMERIS_TYPE = 0
CLASSIFICATION_TYPE = U
NORAD_CAT_ID   = 24883
ELEMENT_SET_NO = 999
REV_AT_EPOCH   = 50911
BSTAR          = .13176543E-3
MEAN_MOTION_DOT = .332E-5
MEAN_MOTION_DDOT = 0

CCSDS_OMM_VERS = 2.0
CREATION_DATE  = 
ORIGINATOR     = 

OBJECT_NAME    = SL-16 R/B
OBJECT_ID      = 1998-043G
CENTER_NAME    = EARTH
REF_FRAME      = TEME
TIME_SYSTEM    = UTC
MEAN_ELEMENT_THEORY = SGP/SGP4

EPOCH          = 2026-03-14T07:00:47.211840
MEAN_MOTION    = 14.26050900
ECCENTRICITY   = .00099833
INCLINATION    = 98.8260
RA_OF_ASC_NODE = 26.6883
ARG_OF_PERICENTER = 7.5845
MEAN_ANOMALY   = 352.5483

EPHEMERIS_TYPE = 0
CLASSIFICATION_TYPE = U
NORAD_CAT_ID   = 25400
ELEMENT_SET_NO = 999
REV_AT_EPOCH   = 43964
BSTAR          = .46479052E-4
MEAN_MOTION_DOT = .66E-6
MEAN_MOTION_DDOT = 0

