COSMOS 2242             
1 22626U 93024A   26073.24937379  .00002269  00000+0  19683-3 0  9996
2 22626  82.5151 262.3538 0014969 292.2813  67.6821 14.96568847781078
SL-16 R/B               
1 22803U 93059B   26073.20584857  .00000037  00000+0  42236-4 0  9998
2 22803  70.9930   1.6032 0018267 209.9164 150.0917 14.17231456680171
ARIANE 40 R/B           
1 22830U 93061H   26073.16772203  .00000224  00000+0  97907-4 0  9993
2 22830  98.4907 141.9668 0009580 270.3123  89.6963 14.32863563694741
COSMOS 2278             
1 23087U 94023A   26073.26546671 -.00000059  00000+0 -59493-5 0  9993
2 23087  71.0550 165.5254 0008379   4.9169 355.2035 14.14379631645450
SL-16 R/B               
1 23088U 94023B   26073.30988097 -.00000174  00000+0 -65097-4 0  9995
2 23088  70.9984  61.1825 0005655 281.0081  79.0405 14.15010390646740
SL-16 R/B               
1 23343U 94074B   26073.05305208  .00000535  00000+0  78342-4 0  9990
2 23343  97.7103 103.6941 0006093 194.8036 218.7919 14.79413545687895
SL-16 R/B               
1 23405U 94077B   26073.14838552  .00000196  00000+0  12442-3 0  9996
2 23405  70.9852 343.1100 0002838 206.4142 153.6837 14.15562316616863
ARIANE 40+ R/B          
1 23561U 95021B   26073.19438567  .00000323  00000+0  11679-3 0  9999
2 23561  98.4489 144.6159 0007809 124.5754 293.2070 14.39776067619899
SL-16 R/B               
1 23705U 95058B   26073.29692865  .00000276  00000+0  16518-3 0  9997
2 23705  71.0223 170.5828 0010593 117.4903 242.7298 14.15498537568503
SL-16 R/B               
1 24298U 96051B   26073.27363103  .00000085  00000+0  72507-4 0  9996
2 24298  70.7603 165.5371 0014694 140.9692 219.2491 14.12417040522295
ORBVIEW 2 (SEASTAR)     
1 24883U 97037A   26073.15762505  .00000332  00000+0  13177-3 0  9999
2 24883  98.8575 237.5880 0002975  62.8471 297.3016 14.35498540509110
SL-16 R/B               
1 25400U 98043G   26073.29221310  .00000066  00000+0  46479-4 0  9998
2 25400  98.8260  26.6883 0009983   7.5845 352.5483 14.26050900439640
